IRIDIUM 65 [+]          
1 25288U 98021D   16037.55058766  .00000075  00000-0  19864-4 0  9998
2 25288  86.3929  71.4904 0002277  97.9497 262.1957 14.34218907933839
IRIDIUM 66 [+]          
1 25289U 98021E   16037.58940877  .00000071  00000-0  18313-4 0  9999
2 25289  86.3929  71.3818 0002181  96.1821  71.5735 14.34218698933832
IRIDIUM 67 [+]          
1 25290U 98021F   16037.56327508  .00000064  00000-0  15623-4 0  9992
2 25290  86.3930  71.5217 0002215  94.4793 265.6656 14.34218492933849
IRIDIUM 68 [+]          
1 25291U 98021G   16037.56963694  .00000066  00000-0  16411-4 0  9993
2 25291  86.3931  71.6284 0002132  95.4470 264.6969 14.34218954933813
IRIDIUM 69 [-]          
1 25319U 98026A   16037.58954953  .00000234  00000-0  69955-4 0  9997
2 25319  86.3979  94.6542 0004188 100.6662  67.3565 14.38547218931644
IRIDIUM 71 [-]          
1 25320U 98026B   16037.58319495  .00000217  00000-0  63773-4 0  9998
2 25320  86.3958  90.7857 0003225 132.0974  31.9233 14.38974285932058
IRIDIUM 70 [+]          
1 25342U 98032A   16037.55497039  .00000071  00000-0  18297-4 0  9996
2 25342  86.3936  71.8528 0002174  97.5719  56.1274 14.34218264927914
IRIDIUM 72 [+]          
1 25343U 98032B   16037.53403935  .00000066  00000-0  16627-4 0  9996
2 25343  86.3929  71.5056 0002229  95.2451  15.9077 14.34218840927913
IRIDIUM 73 [-]          
1 25344U 98032C   16037.57217578  .00000274  00000-0  67138-4 0  9991
2 25344  86.4393  52.8054 0001588  83.8424  70.4145 14.48886511935642
IRIDIUM 74 [S]          
1 25345U 98032D   16037.57681365  .00000094  00000-0  22146-4 0  9991
2 25345  86.4442  71.8184 0002447  92.0702  70.2984 14.42950679931139
IRIDIUM 75 [+]          
1 25346U 98032E   16037.55023284  .00000068  00000-0  17327-4 0  9996
2 25346  86.3934  71.7338 0002214  94.3730  67.5703 14.34217541928480
IRIDIUM 3 [+]           
1 25431U 98048A   16037.60388523  .00000258  00000-0  85037-4 0  9998
2 25431  86.3964 103.3258 0002233 100.9781  58.2117 14.34222426914436
IRIDIUM 76 [+]          
1 25432U 98048B   16037.32424053  .00000247  00000-0  81023-4 0  9996
2 25432  86.3960 103.2130 0002076  98.0894 319.9745 14.34222191914374
IRIDIUM 82 [+]          
1 25467U 98051A   16037.49161243 -.00000075  00000-0 -33808-4 0  9994
2 25467  86.3948 229.7061 0002242  88.5501 271.5951 14.34217246915423
IRIDIUM 81 [+]          
1 25468U 98051B   16037.55504068  .00000031  00000-0  38805-5 0  9991
2 25468  86.3940 229.3248 0002108  87.8319 272.3118 14.34217406911652
IRIDIUM 80 [+]          
1 25469U 98051C   16037.47777778  .00000016  00000-0 -15214-5 0  9996
2 25469  86.3945 229.6212 0001925  82.4601 337.1595 14.34217564911646
IRIDIUM 77 [+]          
1 25471U 98051E   16037.54646034  .00000007  00000-0 -46201-5 0  9997
2 25471  86.3937 229.2117 0001838  88.7075 292.6599 14.34217569916859
IRIDIUM 2 [-]           
1 25527U 98066A   16037.52423927  .00003454  00000-0  18541-3 0  9999
2 25527  85.5347 324.9861 0012161 107.8633 305.1214 15.14513954942657
IRIDIUM 86 [+]          
1 25528U 98066B   16037.50084607  .00000052  00000-0  11553-4 0  9994
2 25528  86.3968 197.4261 0002035 100.5001 259.6424 14.34216558908177
IRIDIUM 84 [+]          
1 25530U 98066D   16037.53256236  .00000056  00000-0  12885-4 0  9992
2 25530  86.3969 197.5691 0002043  93.0770 267.0659 14.34216387905818
IRIDIUM 83 [+]          
1 25531U 98066E   16037.49450874  .00000002  00000-0 -62803-5 0  9990
2 25531  86.3974 197.6899 0001902  88.5751 271.5662 14.34216064903169
IRIDIUM 20 [+]          
1 25577U 98074A   16037.55404260  .00000255  00000-0  83978-4 0  9998
2 25577  86.3960 103.0453 0002243  98.2405 261.9046 14.34222246897254
IRIDIUM 11 [+]          
1 25578U 98074B   16037.59417943  .00000245  00000-0  80543-4 0  9999
2 25578  86.3958 103.2350 0002349  97.6895  44.1371 14.34222045906220
IRIDIUM 14 [S]          
1 25777U 99032A   16037.56944581  .00000060  00000-0  14275-4 0  9999
2 25777  86.3930  71.5636 0002226  98.2780  64.6432 14.34218568883492
IRIDIUM 21 [+]          
1 25778U 99032B   16037.50618590  .00000070  00000-0  17781-4 0  9998
2 25778  86.3931  71.6149 0002116  91.9516 268.1922 14.34218945876923
IRIDIUM 91 [+]          
1 27372U 02005A   16037.41537939  .00000064  00000-0  15932-4 0  9990
2 27372  86.4014 135.4721 0002356  94.8458 317.6200 14.34215905740423
IRIDIUM 90 [S]          
1 27373U 02005B   16037.53090980  .00000090  00000-0  21031-4 0  9990
2 27373  86.4483 197.6393 0001815 100.9253 259.2152 14.42945864739732
IRIDIUM 94 [S]          
1 27374U 02005C   16037.54181634  .00000259  00000-0  85263-4 0  9993
2 27374  86.3952 103.3748 0001196 111.6066  21.8387 14.34213523744767
IRIDIUM 95 [+]          
1 27375U 02005D   16037.37352399  .00000376  00000-0  12724-3 0  9994
2 27375  86.4013 135.2731 0002016 100.0086 260.1337 14.34216920739704
IRIDIUM 96 [S]          
1 27376U 02005E   16037.49109579  .00000234  00000-0  76555-4 0  9994
2 27376  86.4038 166.6731 0001325  49.2299 310.9011 14.34213076744924
IRIDIUM 97 [+]          
1 27450U 02031A   16037.45938689  .00000212  00000-0  68742-4 0  9999
2 27450  86.4004 166.5455 0002224  93.2409 266.9041 14.34218652719035
IRIDIUM 98 [S]          
1 27451U 02031B   16037.52810480  .00000057  00000-0  13435-4 0  9992
2 27451  86.3935 229.7904 0002100  86.0658 331.4614 14.34217425720110
